{
"type": "FeatureCollection",
"name": "ship_detections",
"crs": { "type": "name", "properties": { "name": "urn:ogc:def:crs:OGC:1.3:CRS84" } },
"features": [
{ "type": "Feature", "properties": { "image_name": "01751.png", "class": "ship", "class_id": 1, "confidence": 0.51142203807830811, "bbox": [ 13.672465324401855, 14.089479446411133, 64.87364196777344, 64.93824768066406 ], "lat": 37.754846546575749, "lon": -122.43982886368556, "true_label": 0 }, "geometry": { "type": "Point", "coordinates": [ -122.439828863685563, 37.754846546575749 ] } },
{ "type": "Feature", "properties": { "image_name": "00901.png", "class": "ship", "class_id": 1, "confidence": 0.61910456418991089, "bbox": [ 14.768178939819336, 15.272890090942383, 64.37543487548828, 64.69357299804688 ], "lat": 37.750060329751648, "lon": -122.3404957785872, "true_label": 1 }, "geometry": { "type": "Point", "coordinates": [ -122.340495778587197, 37.750060329751648 ] } },
{ "type": "Feature", "properties": { "image_name": "00158.png", "class": "ship", "class_id": 1, "confidence": 0.56107372045516968, "bbox": [ 14.591983795166016, 15.142290115356445, 64.37323760986328, 64.86021423339844 ], "lat": 37.757172017590726, "lon": -122.34540497671432, "true_label": 1 }, "geometry": { "type": "Point", "coordinates": [ -122.34540497671432, 37.757172017590726 ] } },
{ "type": "Feature", "properties": { "image_name": "02500.png", "class": "ship", "class_id": 1, "confidence": 0.62505406141281128, "bbox": [ 13.969829559326172, 14.114763259887695, 65.21131896972656, 65.68934631347656 ], "lat": 33.666149166064713, "lon": -118.10809237263668, "true_label": 0 }, "geometry": { "type": "Point", "coordinates": [ -118.108092372636676, 33.666149166064713 ] } },
{ "type": "Feature", "properties": { "image_name": "00481.png", "class": "ship", "class_id": 1, "confidence": 0.65127336978912354, "bbox": [ 14.196361541748047, 14.544629096984863, 65.21505737304688, 65.30303192138672 ], "lat": 33.738293573829857, "lon": -118.22417771702931, "true_label": 1 }, "geometry": { "type": "Point", "coordinates": [ -118.224177717029306, 33.738293573829857 ] } },
{ "type": "Feature", "properties": { "image_name": "00035.png", "class": "ship", "class_id": 1, "confidence": 0.60435611009597778, "bbox": [ 14.034842491149902, 14.36745548248291, 65.12989807128906, 65.53157043457031 ], "lat": 37.707312377366257, "lon": -122.32641024925596, "true_label": 1 }, "geometry": { "type": "Point", "coordinates": [ -122.326410249255957, 37.707312377366257 ] } },
{ "type": "Feature", "properties": { "image_name": "00020.png", "class": "ship", "class_id": 1, "confidence": 0.50400102138519287, "bbox": [ 15.07813549041748, 15.383811950683594, 63.93045425415039, 64.12576293945312 ], "lat": 33.69822802602944, "lon": -118.15349753221352, "true_label": 1 }, "geometry": { "type": "Point", "coordinates": [ -118.153497532213521, 33.69822802602944 ] } },
{ "type": "Feature", "properties": { "image_name": "00269.png", "class": "ship", "class_id": 1, "confidence": 0.62512511014938354, "bbox": [ 14.4716215133667, 14.415925979614258, 65.03056335449219, 65.37994384765625 ], "lat": 37.781951320898777, "lon": -122.35234086557968, "true_label": 1 }, "geometry": { "type": "Point", "coordinates": [ -122.352340865579677, 37.781951320898777 ] } },
{ "type": "Feature", "properties": { "image_name": "00286.png", "class": "ship", "class_id": 1, "confidence": 0.73595899343490601, "bbox": [ 14.700599670410156, 14.8325834274292, 64.89088439941406, 64.81636047363281 ], "lat": 37.721274958556748, "lon": -122.33295578338384, "true_label": 1 }, "geometry": { "type": "Point", "coordinates": [ -122.332955783383838, 37.721274958556748 ] } },
{ "type": "Feature", "properties": { "image_name": "01230.png", "class": "ship", "class_id": 1, "confidence": 0.57343792915344238, "bbox": [ 15.185169219970703, 15.784634590148926, 63.85708236694336, 64.34136962890625 ], "lat": 37.690179175883209, "lon": -122.49632340655462, "true_label": 0 }, "geometry": { "type": "Point", "coordinates": [ -122.496323406554623, 37.690179175883209 ] } },
{ "type": "Feature", "properties": { "image_name": "00653.png", "class": "ship", "class_id": 1, "confidence": 0.51693004369735718, "bbox": [ 13.631329536437988, 14.023022651672363, 64.99603271484375, 64.91304016113281 ], "lat": 37.75925332587687, "lon": -122.33561199169441, "true_label": 1 }, "geometry": { "type": "Point", "coordinates": [ -122.335611991694407, 37.75925332587687 ] } },
{ "type": "Feature", "properties": { "image_name": "00423.png", "class": "ship", "class_id": 1, "confidence": 0.61744940280914307, "bbox": [ 14.059833526611328, 14.189066886901855, 65.22042083740234, 65.60628509521484 ], "lat": 37.747728821717807, "lon": -122.3298239220434, "true_label": 1 }, "geometry": { "type": "Point", "coordinates": [ -122.329823922043403, 37.747728821717807 ] } },
{ "type": "Feature", "properties": { "image_name": "00304.png", "class": "ship", "class_id": 1, "confidence": 0.51644426584243774, "bbox": [ 14.234657287597656, 14.541277885437012, 64.62751007080078, 64.56477355957031 ], "lat": 37.767891665425658, "lon": -122.33788498731742, "true_label": 1 }, "geometry": { "type": "Point", "coordinates": [ -122.337884987317423, 37.767891665425658 ] } },
{ "type": "Feature", "properties": { "image_name": "00059.png", "class": "ship", "class_id": 1, "confidence": 0.60526371002197266, "bbox": [ 14.267086029052734, 14.702638626098633, 64.8607177734375, 65.18382263183594 ], "lat": 37.76033868308977, "lon": -122.3459560656157, "true_label": 1 }, "geometry": { "type": "Point", "coordinates": [ -122.345956065615695, 37.76033868308977 ] } },
{ "type": "Feature", "properties": { "image_name": "00668.png", "class": "ship", "class_id": 1, "confidence": 0.5469738245010376, "bbox": [ 14.871559143066406, 15.479959487915039, 64.26029968261719, 64.60111236572266 ], "lat": 37.72841630049772, "lon": -122.34310488981546, "true_label": 1 }, "geometry": { "type": "Point", "coordinates": [ -122.343104889815464, 37.72841630049772 ] } },
{ "type": "Feature", "properties": { "image_name": "01902.png", "class": "ship", "class_id": 1, "confidence": 0.53840845823287964, "bbox": [ 14.692496299743652, 15.131077766418457, 64.34680938720703, 64.50839233398438 ], "lat": 37.710276800361093, "lon": -122.41579497567784, "true_label": 0 }, "geometry": { "type": "Point", "coordinates": [ -122.415794975677841, 37.710276800361093 ] } },
{ "type": "Feature", "properties": { "image_name": "02527.png", "class": "ship", "class_id": 1, "confidence": 0.60048943758010864, "bbox": [ 14.345733642578125, 14.848891258239746, 64.7033920288086, 65.17645263671875 ], "lat": 37.780523734168455, "lon": -122.35334128778854, "true_label": 0 }, "geometry": { "type": "Point", "coordinates": [ -122.353341287788538, 37.780523734168455 ] } },
{ "type": "Feature", "properties": { "image_name": "01295.png", "class": "ship", "class_id": 1, "confidence": 0.58625537157058716, "bbox": [ 14.411486625671387, 15.06361198425293, 64.52259063720703, 64.98756408691406 ], "lat": 33.687700195179147, "lon": -118.30857941329498, "true_label": 0 }, "geometry": { "type": "Point", "coordinates": [ -118.308579413294979, 33.687700195179147 ] } },
{ "type": "Feature", "properties": { "image_name": "00372.png", "class": "ship", "class_id": 1, "confidence": 0.80364793539047241, "bbox": [ 14.389152526855469, 14.362908363342285, 65.25569152832031, 65.29912567138672 ], "lat": 37.761446864473733, "lon": -122.3458781895694, "true_label": 1 }, "geometry": { "type": "Point", "coordinates": [ -122.345878189569405, 37.761446864473733 ] } },
{ "type": "Feature", "properties": { "image_name": "00812.png", "class": "ship", "class_id": 1, "confidence": 0.51622289419174194, "bbox": [ 13.713122367858887, 14.136489868164062, 64.84671020507812, 64.81655883789062 ], "lat": 33.733880415619041, "lon": -118.14264050152556, "true_label": 1 }, "geometry": { "type": "Point", "coordinates": [ -118.142640501525563, 33.733880415619041 ] } },
{ "type": "Feature", "properties": { "image_name": "00171.png", "class": "ship", "class_id": 1, "confidence": 0.56703227758407593, "bbox": [ 12.962822914123535, 13.418951034545898, 65.82261657714844, 66.41569519042969 ], "lat": 37.737773984680445, "lon": -122.32906247218432, "true_label": 1 }, "geometry": { "type": "Point", "coordinates": [ -122.329062472184319, 37.737773984680445 ] } },
{ "type": "Feature", "properties": { "image_name": "00215.png", "class": "ship", "class_id": 1, "confidence": 0.7304108738899231, "bbox": [ 14.384013175964355, 14.388652801513672, 65.10782623291016, 65.3399429321289 ], "lat": 37.737959994177217, "lon": -122.33804952436104, "true_label": 1 }, "geometry": { "type": "Point", "coordinates": [ -122.33804952436104, 37.737959994177217 ] } },
{ "type": "Feature", "properties": { "image_name": "01229.png", "class": "ship", "class_id": 1, "confidence": 0.60637044906616211, "bbox": [ 14.792217254638672, 15.353429794311523, 64.23180389404297, 64.63311767578125 ], "lat": 37.840619921150072, "lon": -122.29475255754282, "true_label": 0 }, "geometry": { "type": "Point", "coordinates": [ -122.294752557542822, 37.840619921150072 ] } },
{ "type": "Feature", "properties": { "image_name": "00780.png", "class": "ship", "class_id": 1, "confidence": 0.5916670560836792, "bbox": [ 14.029664039611816, 14.60089111328125, 65.03425598144531, 65.39564514160156 ], "lat": 37.76730199371881, "lon": -122.33880991035068, "true_label": 1 }, "geometry": { "type": "Point", "coordinates": [ -122.338809910350676, 37.76730199371881 ] } },
{ "type": "Feature", "properties": { "image_name": "00451.png", "class": "ship", "class_id": 1, "confidence": 0.85002052783966064, "bbox": [ 14.545806884765625, 14.461661338806152, 65.30670928955078, 65.01091766357422 ], "lat": 37.738022168940013, "lon": -122.32991143835493, "true_label": 1 }, "geometry": { "type": "Point", "coordinates": [ -122.329911438354927, 37.738022168940013 ] } },
{ "type": "Feature", "properties": { "image_name": "00706.png", "class": "ship", "class_id": 1, "confidence": 0.54504621028900146, "bbox": [ 14.409794807434082, 15.107831954956055, 64.57504272460938, 64.86146545410156 ], "lat": 37.736930957319281, "lon": -122.32821888700256, "true_label": 1 }, "geometry": { "type": "Point", "coordinates": [ -122.328218887002564, 37.736930957319281 ] } },
{ "type": "Feature", "properties": { "image_name": "00364.png", "class": "ship", "class_id": 1, "confidence": 0.80243492126464844, "bbox": [ 15.019927024841309, 14.89531135559082, 64.76311492919922, 64.6986312866211 ], "lat": 37.74843480571981, "lon": -122.33993130362352, "true_label": 1 }, "geometry": { "type": "Point", "coordinates": [ -122.339931303623516, 37.74843480571981 ] } },
{ "type": "Feature", "properties": { "image_name": "02215.png", "class": "ship", "class_id": 1, "confidence": 0.52334105968475342, "bbox": [ 13.926005363464355, 14.461356163024902, 64.95426177978516, 65.2584228515625 ], "lat": 33.729190412557024, "lon": -118.2281607641787, "true_label": 0 }, "geometry": { "type": "Point", "coordinates": [ -118.228160764178696, 33.729190412557024 ] } },
{ "type": "Feature", "properties": { "image_name": "02795.png", "class": "ship", "class_id": 1, "confidence": 0.55975574254989624, "bbox": [ 14.846001625061035, 15.249631881713867, 64.23019409179688, 64.68876647949219 ], "lat": 33.730769712061026, "lon": -118.14839556514416, "true_label": 0 }, "geometry": { "type": "Point", "coordinates": [ -118.148395565144156, 33.730769712061026 ] } },
{ "type": "Feature", "properties": { "image_name": "00990.png", "class": "ship", "class_id": 1, "confidence": 0.51430636644363403, "bbox": [ 14.076481819152832, 14.595821380615234, 64.47760772705078, 64.46026611328125 ], "lat": 37.770253333729272, "lon": -122.33953301753296, "true_label": 1 }, "geometry": { "type": "Point", "coordinates": [ -122.339533017532958, 37.770253333729272 ] } },
{ "type": "Feature", "properties": { "image_name": "01524.png", "class": "ship", "class_id": 1, "confidence": 0.58751136064529419, "bbox": [ 14.8732328414917, 15.411453247070312, 64.05157470703125, 64.52569580078125 ], "lat": 37.628258938897311, "lon": -122.47797447430604, "true_label": 0 }, "geometry": { "type": "Point", "coordinates": [ -122.477974474306038, 37.628258938897311 ] } },
{ "type": "Feature", "properties": { "image_name": "02504.png", "class": "ship", "class_id": 1, "confidence": 0.57345336675643921, "bbox": [ 14.507726669311523, 14.463056564331055, 64.64351654052734, 65.18158721923828 ], "lat": 33.728700511746176, "lon": -118.14687848397227, "true_label": 0 }, "geometry": { "type": "Point", "coordinates": [ -118.146878483972273, 33.728700511746176 ] } },
{ "type": "Feature", "properties": { "image_name": "00344.png", "class": "ship", "class_id": 1, "confidence": 0.92913323640823364, "bbox": [ 13.329757690429688, 12.676068305969238, 66.88665771484375, 66.63862609863281 ], "lat": 37.747531495222006, "lon": -122.34279974737539, "true_label": 1 }, "geometry": { "type": "Point", "coordinates": [ -122.342799747375395, 37.747531495222006 ] } },
{ "type": "Feature", "properties": { "image_name": "00240.png", "class": "ship", "class_id": 1, "confidence": 0.94156217575073242, "bbox": [ 13.514219284057617, 12.765989303588867, 66.79502868652344, 66.47379302978516 ], "lat": 37.728523103272472, "lon": -122.33323121256696, "true_label": 1 }, "geometry": { "type": "Point", "coordinates": [ -122.333231212566957, 37.728523103272472 ] } },
{ "type": "Feature", "properties": { "image_name": "00142.png", "class": "ship", "class_id": 1, "confidence": 0.61192828416824341, "bbox": [ 14.576630592346191, 15.160512924194336, 64.50630950927734, 64.84129333496094 ], "lat": 37.74943283414725, "lon": -122.3492190437419, "true_label": 1 }, "geometry": { "type": "Point", "coordinates": [ -122.349219043741897, 37.74943283414725 ] } },
{ "type": "Feature", "properties": { "image_name": "00203.png", "class": "ship", "class_id": 1, "confidence": 0.85375678539276123, "bbox": [ 15.09010124206543, 14.928874969482422, 64.83116912841797, 64.5771713256836 ], "lat": 37.728839537031682, "lon": -122.3365987361789, "true_label": 1 }, "geometry": { "type": "Point", "coordinates": [ -122.3365987361789, 37.728839537031682 ] } },
{ "type": "Feature", "properties": { "image_name": "00795.png", "class": "ship", "class_id": 1, "confidence": 0.6367524266242981, "bbox": [ 13.865028381347656, 14.337625503540039, 65.17340087890625, 65.43756103515625 ], "lat": 33.666283271443923, "lon": -118.10822352243341, "true_label": 1 }, "geometry": { "type": "Point", "coordinates": [ -118.108223522433406, 33.666283271443923 ] } },
{ "type": "Feature", "properties": { "image_name": "00357.png", "class": "ship", "class_id": 1, "confidence": 0.72336727380752563, "bbox": [ 14.350948333740234, 14.318361282348633, 65.14895629882812, 65.40660095214844 ], "lat": 33.729986586486483, "lon": -118.20501972925084, "true_label": 1 }, "geometry": { "type": "Point", "coordinates": [ -118.205019729250836, 33.729986586486483 ] } },
{ "type": "Feature", "properties": { "image_name": "00250.png", "class": "ship", "class_id": 1, "confidence": 0.74749952554702759, "bbox": [ 14.492897987365723, 14.493712425231934, 65.02047729492188, 65.14324951171875 ], "lat": 33.701843339526491, "lon": -118.21660363531724, "true_label": 1 }, "geometry": { "type": "Point", "coordinates": [ -118.216603635317242, 33.701843339526491 ] } },
{ "type": "Feature", "properties": { "image_name": "01562.png", "class": "ship", "class_id": 1, "confidence": 0.50670194625854492, "bbox": [ 13.741609573364258, 14.055831909179688, 64.8727035522461, 64.96694946289062 ], "lat": 37.675655454882602, "lon": -122.14768572137348, "true_label": 0 }, "geometry": { "type": "Point", "coordinates": [ -122.147685721373477, 37.675655454882602 ] } },
{ "type": "Feature", "properties": { "image_name": "01758.png", "class": "ship", "class_id": 1, "confidence": 0.52393728494644165, "bbox": [ 15.137481689453125, 15.608588218688965, 63.99241638183594, 64.08183288574219 ], "lat": 33.736931352336065, "lon": -118.16360091599894, "true_label": 0 }, "geometry": { "type": "Point", "coordinates": [ -118.163600915998941, 33.736931352336065 ] } },
{ "type": "Feature", "properties": { "image_name": "01996.png", "class": "ship", "class_id": 1, "confidence": 0.57471752166748047, "bbox": [ 14.359431266784668, 14.81141471862793, 64.64403533935547, 65.18766784667969 ], "lat": 37.781881406363148, "lon": -122.27974185833116, "true_label": 0 }, "geometry": { "type": "Point", "coordinates": [ -122.279741858331164, 37.781881406363148 ] } },
{ "type": "Feature", "properties": { "image_name": "00064.png", "class": "ship", "class_id": 1, "confidence": 0.59811300039291382, "bbox": [ 13.311285972595215, 13.884712219238281, 65.56491088867188, 66.07264709472656 ], "lat": 37.770961706051672, "lon": -122.35022261547248, "true_label": 1 }, "geometry": { "type": "Point", "coordinates": [ -122.350222615472475, 37.770961706051672 ] } },
{ "type": "Feature", "properties": { "image_name": "00484.png", "class": "ship", "class_id": 1, "confidence": 0.69977039098739624, "bbox": [ 15.171867370605469, 15.39720344543457, 64.28317260742188, 64.30648040771484 ], "lat": 37.749815392249758, "lon": -122.33062239136795, "true_label": 1 }, "geometry": { "type": "Point", "coordinates": [ -122.330622391367953, 37.749815392249758 ] } },
{ "type": "Feature", "properties": { "image_name": "00342.png", "class": "ship", "class_id": 1, "confidence": 0.92257905006408691, "bbox": [ 13.835553169250488, 13.207704544067383, 66.39530944824219, 66.11256408691406 ], "lat": 37.747392592495167, "lon": -122.33251710496928, "true_label": 1 }, "geometry": { "type": "Point", "coordinates": [ -122.332517104969284, 37.747392592495167 ] } },
{ "type": "Feature", "properties": { "image_name": "00383.png", "class": "ship", "class_id": 1, "confidence": 0.69670730829238892, "bbox": [ 14.41475772857666, 14.491652488708496, 65.08171081542969, 65.20067596435547 ], "lat": 37.73660062525196, "lon": -122.33673377168526, "true_label": 1 }, "geometry": { "type": "Point", "coordinates": [ -122.33673377168526, 37.73660062525196 ] } },
{ "type": "Feature", "properties": { "image_name": "01747.png", "class": "ship", "class_id": 1, "confidence": 0.52794849872589111, "bbox": [ 13.999152183532715, 14.616976737976074, 64.97883605957031, 65.12374114990234 ], "lat": 37.704384396933442, "lon": -122.30642544690812, "true_label": 0 }, "geometry": { "type": "Point", "coordinates": [ -122.306425446908122, 37.704384396933442 ] } },
{ "type": "Feature", "properties": { "image_name": "00302.png", "class": "ship", "class_id": 1, "confidence": 0.75567710399627686, "bbox": [ 14.516609191894531, 14.739346504211426, 65.07205200195312, 64.86904907226562 ], "lat": 37.72722505290939, "lon": -122.32371072721811, "true_label": 1 }, "geometry": { "type": "Point", "coordinates": [ -122.323710727218113, 37.72722505290939 ] } },
{ "type": "Feature", "properties": { "image_name": "00555.png", "class": "ship", "class_id": 1, "confidence": 0.54102033376693726, "bbox": [ 14.708147048950195, 15.225228309631348, 64.45333862304688, 64.7366714477539 ], "lat": 37.757058638224542, "lon": -122.33481425268204, "true_label": 1 }, "geometry": { "type": "Point", "coordinates": [ -122.334814252682037, 37.757058638224542 ] } },
{ "type": "Feature", "properties": { "image_name": "02522.png", "class": "ship", "class_id": 1, "confidence": 0.59173572063446045, "bbox": [ 13.67367935180664, 14.047653198242188, 65.5654296875, 65.98502349853516 ], "lat": 37.758662903328286, "lon": -122.33640059989304, "true_label": 0 }, "geometry": { "type": "Point", "coordinates": [ -122.336400599893039, 37.758662903328286 ] } },
{ "type": "Feature", "properties": { "image_name": "00333.png", "class": "ship", "class_id": 1, "confidence": 0.86841368675231934, "bbox": [ 13.667731285095215, 13.49488353729248, 66.22136688232422, 66.08030700683594 ], "lat": 37.719487357984072, "lon": -122.33242717685424, "true_label": 1 }, "geometry": { "type": "Point", "coordinates": [ -122.332427176854239, 37.719487357984072 ] } },
{ "type": "Feature", "properties": { "image_name": "00343.png", "class": "ship", "class_id": 1, "confidence": 0.78433859348297119, "bbox": [ 14.840177536010742, 14.859457015991211, 64.83650207519531, 64.65843963623047 ], "lat": 37.793857507207441, "lon": -122.35891542555478, "true_label": 1 }, "geometry": { "type": "Point", "coordinates": [ -122.358915425554784, 37.793857507207441 ] } },
{ "type": "Feature", "properties": { "image_name": "00680.png", "class": "ship", "class_id": 1, "confidence": 0.61012983322143555, "bbox": [ 13.605803489685059, 14.313788414001465, 65.22578430175781, 65.7455825805664 ], "lat": 37.750935442767243, "lon": -122.34225882891783, "true_label": 1 }, "geometry": { "type": "Point", "coordinates": [ -122.342258828917835, 37.750935442767243 ] } },
{ "type": "Feature", "properties": { "image_name": "00426.png", "class": "ship", "class_id": 1, "confidence": 0.61991351842880249, "bbox": [ 14.67684555053711, 14.6297607421875, 64.61776733398438, 65.04700469970703 ], "lat": 33.70783371987271, "lon": -118.20720291702628, "true_label": 1 }, "geometry": { "type": "Point", "coordinates": [ -118.207202917026279, 33.70783371987271 ] } },
{ "type": "Feature", "properties": { "image_name": "00118.png", "class": "ship", "class_id": 1, "confidence": 0.53218179941177368, "bbox": [ 13.996185302734375, 14.475536346435547, 64.93328094482422, 65.45353698730469 ], "lat": 37.737457343112986, "lon": -122.34002878429033, "true_label": 1 }, "geometry": { "type": "Point", "coordinates": [ -122.340028784290325, 37.737457343112986 ] } },
{ "type": "Feature", "properties": { "image_name": "02354.png", "class": "ship", "class_id": 1, "confidence": 0.56895512342453003, "bbox": [ 14.471080780029297, 14.938044548034668, 64.6406021118164, 64.99246978759766 ], "lat": 37.730442265207671, "lon": -122.34274654482738, "true_label": 0 }, "geometry": { "type": "Point", "coordinates": [ -122.342746544827378, 37.730442265207671 ] } },
{ "type": "Feature", "properties": { "image_name": "00613.png", "class": "ship", "class_id": 1, "confidence": 0.57235175371170044, "bbox": [ 15.385966300964355, 15.878456115722656, 63.59540939331055, 64.12841033935547 ], "lat": 37.717757108744287, "lon": -122.33247674255702, "true_label": 1 }, "geometry": { "type": "Point", "coordinates": [ -122.33247674255702, 37.717757108744287 ] } },
{ "type": "Feature", "properties": { "image_name": "00893.png", "class": "ship", "class_id": 1, "confidence": 0.69896155595779419, "bbox": [ 14.344372749328613, 14.834924697875977, 65.10148620605469, 65.075439453125 ], "lat": 37.768164340821855, "lon": -122.33829130097207, "true_label": 1 }, "geometry": { "type": "Point", "coordinates": [ -122.338291300972074, 37.768164340821855 ] } },
{ "type": "Feature", "properties": { "image_name": "00048.png", "class": "ship", "class_id": 1, "confidence": 0.66973322629928589, "bbox": [ 14.371075630187988, 14.966060638427734, 64.83941650390625, 65.08732604980469 ], "lat": 37.706854283464288, "lon": -122.32668666719792, "true_label": 1 }, "geometry": { "type": "Point", "coordinates": [ -122.326686667197919, 37.706854283464288 ] } },
{ "type": "Feature", "properties": { "image_name": "00068.png", "class": "ship", "class_id": 1, "confidence": 0.85040903091430664, "bbox": [ 14.043778419494629, 13.83975887298584, 65.85962677001953, 65.74464416503906 ], "lat": 37.736984327562311, "lon": -122.33764963851031, "true_label": 1 }, "geometry": { "type": "Point", "coordinates": [ -122.337649638510314, 37.736984327562311 ] } },
{ "type": "Feature", "properties": { "image_name": "00669.png", "class": "ship", "class_id": 1, "confidence": 0.57106024026870728, "bbox": [ 14.716793060302734, 15.286598205566406, 64.24976348876953, 64.7491683959961 ], "lat": 33.727151109873056, "lon": -118.16499076011308, "true_label": 1 }, "geometry": { "type": "Point", "coordinates": [ -118.164990760113085, 33.727151109873056 ] } },
{ "type": "Feature", "properties": { "image_name": "02508.png", "class": "ship", "class_id": 1, "confidence": 0.50342321395874023, "bbox": [ 13.709794044494629, 14.042710304260254, 65.09504699707031, 65.6904525756836 ], "lat": 33.679404003810987, "lon": -118.1233756461732, "true_label": 0 }, "geometry": { "type": "Point", "coordinates": [ -118.123375646173201, 33.679404003810987 ] } },
{ "type": "Feature", "properties": { "image_name": "00241.png", "class": "ship", "class_id": 1, "confidence": 0.91379731893539429, "bbox": [ 13.412612915039062, 12.955230712890625, 66.6783447265625, 66.43773651123047 ], "lat": 37.751526032310252, "lon": -122.35124397905849, "true_label": 1 }, "geometry": { "type": "Point", "coordinates": [ -122.351243979058495, 37.751526032310252 ] } },
{ "type": "Feature", "properties": { "image_name": "00459.png", "class": "ship", "class_id": 1, "confidence": 0.60492634773254395, "bbox": [ 14.915538787841797, 15.552406311035156, 64.02886199951172, 64.58578491210938 ], "lat": 33.729378027438536, "lon": -118.14675797353652, "true_label": 1 }, "geometry": { "type": "Point", "coordinates": [ -118.146757973536523, 33.729378027438536 ] } },
{ "type": "Feature", "properties": { "image_name": "00266.png", "class": "ship", "class_id": 1, "confidence": 0.6339346170425415, "bbox": [ 14.191831588745117, 14.326720237731934, 65.18114471435547, 65.45635223388672 ], "lat": 37.72900278572078, "lon": -122.32723514726786, "true_label": 1 }, "geometry": { "type": "Point", "coordinates": [ -122.327235147267857, 37.72900278572078 ] } },
{ "type": "Feature", "properties": { "image_name": "00621.png", "class": "ship", "class_id": 1, "confidence": 0.50969117879867554, "bbox": [ 13.758790969848633, 14.12610912322998, 64.90471649169922, 64.934326171875 ], "lat": 37.726630996468089, "lon": -122.3238523014483, "true_label": 1 }, "geometry": { "type": "Point", "coordinates": [ -122.323852301448298, 37.726630996468089 ] } },
{ "type": "Feature", "properties": { "image_name": "00800.png", "class": "ship", "class_id": 1, "confidence": 0.60917139053344727, "bbox": [ 14.507403373718262, 15.019027709960938, 64.50988006591797, 64.96955871582031 ], "lat": 37.793448227902651, "lon": -122.35823748780594, "true_label": 1 }, "geometry": { "type": "Point", "coordinates": [ -122.358237487805937, 37.793448227902651 ] } },
{ "type": "Feature", "properties": { "image_name": "02311.png", "class": "ship", "class_id": 1, "confidence": 0.60829800367355347, "bbox": [ 13.821382522583008, 14.166888236999512, 65.37794494628906, 65.65153503417969 ], "lat": 37.781158971093056, "lon": -122.35084878472682, "true_label": 0 }, "geometry": { "type": "Point", "coordinates": [ -122.350848784726821, 37.781158971093056 ] } },
{ "type": "Feature", "properties": { "image_name": "00454.png", "class": "ship", "class_id": 1, "confidence": 0.53111386299133301, "bbox": [ 13.750799179077148, 14.296972274780273, 65.2253646850586, 65.61759948730469 ], "lat": 37.739801260527599, "lon": -122.33850981521252, "true_label": 1 }, "geometry": { "type": "Point", "coordinates": [ -122.338509815212518, 37.739801260527599 ] } },
{ "type": "Feature", "properties": { "image_name": "00891.png", "class": "ship", "class_id": 1, "confidence": 0.6689954400062561, "bbox": [ 14.657066345214844, 15.26542854309082, 64.56196594238281, 64.72116088867188 ], "lat": 37.759854643523603, "lon": -122.3464371435492, "true_label": 1 }, "geometry": { "type": "Point", "coordinates": [ -122.346437143549196, 37.759854643523603 ] } },
{ "type": "Feature", "properties": { "image_name": "00174.png", "class": "ship", "class_id": 1, "confidence": 0.652088463306427, "bbox": [ 14.03488540649414, 14.32103157043457, 65.25752258300781, 65.59156799316406 ], "lat": 37.756388859740028, "lon": -122.34558216091033, "true_label": 1 }, "geometry": { "type": "Point", "coordinates": [ -122.345582160910325, 37.756388859740028 ] } },
{ "type": "Feature", "properties": { "image_name": "01112.png", "class": "ship", "class_id": 1, "confidence": 0.65067988634109497, "bbox": [ 14.198302268981934, 14.724639892578125, 64.96577453613281, 65.20853424072266 ], "lat": 37.829955738144207, "lon": -122.61319246315232, "true_label": 0 }, "geometry": { "type": "Point", "coordinates": [ -122.613192463152316, 37.829955738144207 ] } },
{ "type": "Feature", "properties": { "image_name": "02171.png", "class": "ship", "class_id": 1, "confidence": 0.51202625036239624, "bbox": [ 13.607078552246094, 14.122300148010254, 64.87750244140625, 64.93816375732422 ], "lat": 37.736282867053006, "lon": -122.33792826777017, "true_label": 0 }, "geometry": { "type": "Point", "coordinates": [ -122.337928267770167, 37.736282867053006 ] } },
{ "type": "Feature", "properties": { "image_name": "00512.png", "class": "ship", "class_id": 1, "confidence": 0.69206267595291138, "bbox": [ 14.840858459472656, 14.799692153930664, 64.82699584960938, 64.93848419189453 ], "lat": 37.854796077789736, "lon": -122.40916589654476, "true_label": 1 }, "geometry": { "type": "Point", "coordinates": [ -122.409165896544764, 37.854796077789736 ] } },
{ "type": "Feature", "properties": { "image_name": "00327.png", "class": "ship", "class_id": 1, "confidence": 0.86790740489959717, "bbox": [ 14.208121299743652, 13.966714859008789, 65.7170181274414, 65.57796478271484 ], "lat": 37.749431835963328, "lon": -122.35395249049635, "true_label": 1 }, "geometry": { "type": "Point", "coordinates": [ -122.353952490496354, 37.749431835963328 ] } },
{ "type": "Feature", "properties": { "image_name": "00380.png", "class": "ship", "class_id": 1, "confidence": 0.70516014099121094, "bbox": [ 14.479076385498047, 14.410961151123047, 65.08106994628906, 65.29534149169922 ], "lat": 33.738864252602937, "lon": -118.21845380940566, "true_label": 1 }, "geometry": { "type": "Point", "coordinates": [ -118.218453809405659, 33.738864252602937 ] } },
{ "type": "Feature", "properties": { "image_name": "00105.png", "class": "ship", "class_id": 1, "confidence": 0.54676365852355957, "bbox": [ 13.945417404174805, 14.396413803100586, 65.26492309570312, 65.64703369140625 ], "lat": 33.735963160650968, "lon": -118.14270049795864, "true_label": 1 }, "geometry": { "type": "Point", "coordinates": [ -118.142700497958643, 33.735963160650968 ] } },
{ "type": "Feature", "properties": { "image_name": "00220.png", "class": "ship", "class_id": 1, "confidence": 0.76350724697113037, "bbox": [ 14.240091323852539, 14.232284545898438, 65.312744140625, 65.45254516601562 ], "lat": 37.767463839285632, "lon": -122.33874034581321, "true_label": 1 }, "geometry": { "type": "Point", "coordinates": [ -122.338740345813207, 37.767463839285632 ] } },
{ "type": "Feature", "properties": { "image_name": "02390.png", "class": "ship", "class_id": 1, "confidence": 0.70264679193496704, "bbox": [ 14.833115577697754, 14.983426094055176, 64.71737670898438, 64.6815185546875 ], "lat": 37.749137985930666, "lon": -122.33995911087828, "true_label": 0 }, "geometry": { "type": "Point", "coordinates": [ -122.339959110878283, 37.749137985930666 ] } },
{ "type": "Feature", "properties": { "image_name": "00657.png", "class": "ship", "class_id": 1, "confidence": 0.5184141993522644, "bbox": [ 13.74978256225586, 14.181264877319336, 64.93269348144531, 64.8159408569336 ], "lat": 37.728291043116123, "lon": -122.32570961605552, "true_label": 1 }, "geometry": { "type": "Point", "coordinates": [ -122.325709616055519, 37.728291043116123 ] } },
{ "type": "Feature", "properties": { "image_name": "00299.png", "class": "ship", "class_id": 1, "confidence": 0.70854014158248901, "bbox": [ 14.30445671081543, 14.312568664550781, 65.16761779785156, 65.35687255859375 ], "lat": 37.760369688175601, "lon": -122.34667102145276, "true_label": 1 }, "geometry": { "type": "Point", "coordinates": [ -122.346671021452764, 37.760369688175601 ] } },
{ "type": "Feature", "properties": { "image_name": "00663.png", "class": "ship", "class_id": 1, "confidence": 0.51932919025421143, "bbox": [ 13.673523902893066, 14.089197158813477, 64.97560119628906, 64.84086608886719 ], "lat": 37.719249974681382, "lon": -122.34311776171933, "true_label": 1 }, "geometry": { "type": "Point", "coordinates": [ -122.343117761719327, 37.719249974681382 ] } },
{ "type": "Feature", "properties": { "image_name": "01219.png", "class": "ship", "class_id": 1, "confidence": 0.50627624988555908, "bbox": [ 15.59943675994873, 15.82758903503418, 63.60810089111328, 63.70512390136719 ], "lat": 37.634937588935543, "lon": -122.04240901973304, "true_label": 0 }, "geometry": { "type": "Point", "coordinates": [ -122.042409019733043, 37.634937588935543 ] } },
{ "type": "Feature", "properties": { "image_name": "00018.png", "class": "ship", "class_id": 1, "confidence": 0.53187710046768188, "bbox": [ 15.279282569885254, 15.627080917358398, 63.8631591796875, 64.12222290039062 ], "lat": 37.725839074693205, "lon": -122.32249779505128, "true_label": 1 }, "geometry": { "type": "Point", "coordinates": [ -122.322497795051277, 37.725839074693205 ] } },
{ "type": "Feature", "properties": { "image_name": "00293.png", "class": "ship", "class_id": 1, "confidence": 0.83566564321517944, "bbox": [ 14.447102546691895, 14.392062187194824, 65.3635482788086, 65.14891052246094 ], "lat": 37.750522997175615, "lon": -122.35077598042146, "true_label": 1 }, "geometry": { "type": "Point", "coordinates": [ -122.35077598042146, 37.750522997175615 ] } },
{ "type": "Feature", "properties": { "image_name": "00042.png", "class": "ship", "class_id": 1, "confidence": 0.58917617797851562, "bbox": [ 14.430450439453125, 14.66910171508789, 64.81414031982422, 65.25074005126953 ], "lat": 37.753260475183126, "lon": -122.33736834649795, "true_label": 1 }, "geometry": { "type": "Point", "coordinates": [ -122.337368346497954, 37.753260475183126 ] } },
{ "type": "Feature", "properties": { "image_name": "00222.png", "class": "ship", "class_id": 1, "confidence": 0.71727275848388672, "bbox": [ 14.889411926269531, 14.831162452697754, 64.66287231445312, 64.88134765625 ], "lat": 33.665227038030999, "lon": -118.10833940520358, "true_label": 1 }, "geometry": { "type": "Point", "coordinates": [ -118.10833940520358, 33.665227038030999 ] } },
{ "type": "Feature", "properties": { "image_name": "00283.png", "class": "ship", "class_id": 1, "confidence": 0.56171542406082153, "bbox": [ 13.732654571533203, 13.937617301940918, 65.50991821289062, 65.96902465820312 ], "lat": 37.73787964459985, "lon": -122.33818643260602, "true_label": 1 }, "geometry": { "type": "Point", "coordinates": [ -122.338186432606022, 37.73787964459985 ] } },
{ "type": "Feature", "properties": { "image_name": "00654.png", "class": "ship", "class_id": 1, "confidence": 0.51775085926055908, "bbox": [ 13.626246452331543, 14.03431510925293, 65.07470703125, 65.01534271240234 ], "lat": 37.74814772819181, "lon": -122.33216979337156, "true_label": 1 }, "geometry": { "type": "Point", "coordinates": [ -122.332169793371563, 37.74814772819181 ] } },
{ "type": "Feature", "properties": { "image_name": "00810.png", "class": "ship", "class_id": 1, "confidence": 0.52090722322463989, "bbox": [ 13.750237464904785, 14.235381126403809, 64.84648895263672, 64.7823257446289 ], "lat": 37.727445619819321, "lon": -122.3339557848202, "true_label": 1 }, "geometry": { "type": "Point", "coordinates": [ -122.333955784820205, 37.727445619819321 ] } },
{ "type": "Feature", "properties": { "image_name": "00558.png", "class": "ship", "class_id": 1, "confidence": 0.53550618886947632, "bbox": [ 14.091100692749023, 14.591755867004395, 65.08747863769531, 65.42147827148438 ], "lat": 37.737750184432691, "lon": -122.33920902921891, "true_label": 1 }, "geometry": { "type": "Point", "coordinates": [ -122.339209029218907, 37.737750184432691 ] } },
{ "type": "Feature", "properties": { "image_name": "00085.png", "class": "ship", "class_id": 1, "confidence": 0.513175368309021, "bbox": [ 14.927736282348633, 15.08976936340332, 64.13023376464844, 64.29714965820312 ], "lat": 33.728663542165854, "lon": -118.22944847361644, "true_label": 1 }, "geometry": { "type": "Point", "coordinates": [ -118.229448473616443, 33.728663542165854 ] } },
{ "type": "Feature", "properties": { "image_name": "00217.png", "class": "ship", "class_id": 1, "confidence": 0.81571680307388306, "bbox": [ 14.408931732177734, 14.342109680175781, 65.30287170410156, 65.2699203491211 ], "lat": 33.728591602515721, "lon": -118.16429785193364, "true_label": 1 }, "geometry": { "type": "Point", "coordinates": [ -118.16429785193364, 33.728591602515721 ] } },
{ "type": "Feature", "properties": { "image_name": "00216.png", "class": "ship", "class_id": 1, "confidence": 0.81392204761505127, "bbox": [ 14.18103313446045, 14.155590057373047, 65.53272247314453, 65.4172592163086 ], "lat": 37.760312778935017, "lon": -122.34616064464568, "true_label": 1 }, "geometry": { "type": "Point", "coordinates": [ -122.346160644645678, 37.760312778935017 ] } },
{ "type": "Feature", "properties": { "image_name": "00863.png", "class": "ship", "class_id": 1, "confidence": 0.54690748453140259, "bbox": [ 13.714179039001465, 14.261597633361816, 65.30084991455078, 65.78303527832031 ], "lat": 37.767134411147801, "lon": -122.33785767749494, "true_label": 1 }, "geometry": { "type": "Point", "coordinates": [ -122.337857677494938, 37.767134411147801 ] } },
{ "type": "Feature", "properties": { "image_name": "02520.png", "class": "ship", "class_id": 1, "confidence": 0.50527304410934448, "bbox": [ 13.730030059814453, 14.016712188720703, 65.27726745605469, 65.8823013305664 ], "lat": 37.770587893654529, "lon": -122.34133539088378, "true_label": 0 }, "geometry": { "type": "Point", "coordinates": [ -122.341335390883785, 37.770587893654529 ] } },
{ "type": "Feature", "properties": { "image_name": "00307.png", "class": "ship", "class_id": 1, "confidence": 0.51227504014968872, "bbox": [ 15.133118629455566, 15.367391586303711, 63.88298797607422, 64.07972717285156 ], "lat": 37.783383209500307, "lon": -122.35212395588458, "true_label": 1 }, "geometry": { "type": "Point", "coordinates": [ -122.352123955884579, 37.783383209500307 ] } },
{ "type": "Feature", "properties": { "image_name": "00300.png", "class": "ship", "class_id": 1, "confidence": 0.82293617725372314, "bbox": [ 13.945096969604492, 13.97439193725586, 65.72722625732422, 65.56878662109375 ], "lat": 33.72935997071027, "lon": -118.14870059475912, "true_label": 1 }, "geometry": { "type": "Point", "coordinates": [ -118.14870059475912, 33.72935997071027 ] } },
{ "type": "Feature", "properties": { "image_name": "00084.png", "class": "ship", "class_id": 1, "confidence": 0.5147327184677124, "bbox": [ 14.570850372314453, 14.72242259979248, 64.42198181152344, 64.4674072265625 ], "lat": 37.79310192735754, "lon": -122.3591945430192, "true_label": 1 }, "geometry": { "type": "Point", "coordinates": [ -122.3591945430192, 37.79310192735754 ] } },
{ "type": "Feature", "properties": { "image_name": "02557.png", "class": "ship", "class_id": 1, "confidence": 0.52893233299255371, "bbox": [ 13.684367179870605, 14.242258071899414, 65.33197021484375, 65.74278259277344 ], "lat": 33.735365433317227, "lon": -118.16037383506354, "true_label": 0 }, "geometry": { "type": "Point", "coordinates": [ -118.160373835063538, 33.735365433317227 ] } },
{ "type": "Feature", "properties": { "image_name": "00117.png", "class": "ship", "class_id": 1, "confidence": 0.6456000804901123, "bbox": [ 14.644937515258789, 14.915410995483398, 64.7041244506836, 64.91524505615234 ], "lat": 37.767192695047655, "lon": -122.33860651371006, "true_label": 1 }, "geometry": { "type": "Point", "coordinates": [ -122.338606513710062, 37.767192695047655 ] } },
{ "type": "Feature", "properties": { "image_name": "00275.png", "class": "ship", "class_id": 1, "confidence": 0.81075006723403931, "bbox": [ 14.4989013671875, 14.49855899810791, 65.19791412353516, 65.09976196289062 ], "lat": 37.728914132034255, "lon": -122.33544057182404, "true_label": 1 }, "geometry": { "type": "Point", "coordinates": [ -122.335440571824037, 37.728914132034255 ] } },
{ "type": "Feature", "properties": { "image_name": "00775.png", "class": "ship", "class_id": 1, "confidence": 0.63323038816452026, "bbox": [ 14.46672248840332, 14.662652015686035, 64.93116760253906, 65.15848541259766 ], "lat": 37.719753064337553, "lon": -122.34120708472081, "true_label": 1 }, "geometry": { "type": "Point", "coordinates": [ -122.341207084720807, 37.719753064337553 ] } },
{ "type": "Feature", "properties": { "image_name": "00989.png", "class": "ship", "class_id": 1, "confidence": 0.51035338640213013, "bbox": [ 13.744124412536621, 14.174232482910156, 64.81346130371094, 64.8641357421875 ], "lat": 37.740374788341697, "lon": -122.33952619157952, "true_label": 1 }, "geometry": { "type": "Point", "coordinates": [ -122.339526191579523, 37.740374788341697 ] } },
{ "type": "Feature", "properties": { "image_name": "01648.png", "class": "ship", "class_id": 1, "confidence": 0.51328665018081665, "bbox": [ 15.053462028503418, 15.469438552856445, 64.28862762451172, 64.65597534179688 ], "lat": 37.761428261319338, "lon": -122.30027340454819, "true_label": 0 }, "geometry": { "type": "Point", "coordinates": [ -122.300273404548193, 37.761428261319338 ] } },
{ "type": "Feature", "properties": { "image_name": "00510.png", "class": "ship", "class_id": 1, "confidence": 0.61620795726776123, "bbox": [ 14.047141075134277, 14.214491844177246, 65.28092956542969, 65.59443664550781 ], "lat": 37.731778695498313, "lon": -122.3448115019479, "true_label": 1 }, "geometry": { "type": "Point", "coordinates": [ -122.344811501947902, 37.731778695498313 ] } },
{ "type": "Feature", "properties": { "image_name": "00647.png", "class": "ship", "class_id": 1, "confidence": 0.50953590869903564, "bbox": [ 13.822418212890625, 14.251246452331543, 65.35546112060547, 65.6745376586914 ], "lat": 37.740059881510462, "lon": -122.33162957779903, "true_label": 1 }, "geometry": { "type": "Point", "coordinates": [ -122.331629577799035, 37.740059881510462 ] } },
{ "type": "Feature", "properties": { "image_name": "00725.png", "class": "ship", "class_id": 1, "confidence": 0.51344841718673706, "bbox": [ 14.08431625366211, 14.447515487670898, 64.75039672851562, 64.7540054321289 ], "lat": 37.739750431177669, "lon": -122.33908910143056, "true_label": 1 }, "geometry": { "type": "Point", "coordinates": [ -122.339089101430559, 37.739750431177669 ] } },
{ "type": "Feature", "properties": { "image_name": "01748.png", "class": "ship", "class_id": 1, "confidence": 0.51152944564819336, "bbox": [ 13.781488418579102, 14.308639526367188, 64.65252685546875, 64.69544219970703 ], "lat": 37.748667907390434, "lon": -122.47202178027077, "true_label": 0 }, "geometry": { "type": "Point", "coordinates": [ -122.472021780270765, 37.748667907390434 ] } },
{ "type": "Feature", "properties": { "image_name": "01384.png", "class": "ship", "class_id": 1, "confidence": 0.56461638212203979, "bbox": [ 15.252226829528809, 15.857229232788086, 63.72340774536133, 64.16178894042969 ], "lat": 37.697735564255019, "lon": -122.14243066576056, "true_label": 0 }, "geometry": { "type": "Point", "coordinates": [ -122.142430665760557, 37.697735564255019 ] } },
{ "type": "Feature", "properties": { "image_name": "00756.png", "class": "ship", "class_id": 1, "confidence": 0.50518244504928589, "bbox": [ 13.970064163208008, 14.496589660644531, 64.70276641845703, 64.804443359375 ], "lat": 37.71769549718109, "lon": -122.34074876045167, "true_label": 1 }, "geometry": { "type": "Point", "coordinates": [ -122.340748760451675, 37.71769549718109 ] } },
{ "type": "Feature", "properties": { "image_name": "00034.png", "class": "ship", "class_id": 1, "confidence": 0.62067073583602905, "bbox": [ 14.64597225189209, 14.816791534423828, 64.5877456665039, 65.01432037353516 ], "lat": 37.707965076352551, "lon": -122.31765748191476, "true_label": 1 }, "geometry": { "type": "Point", "coordinates": [ -122.317657481914765, 37.707965076352551 ] } },
{ "type": "Feature", "properties": { "image_name": "02219.png", "class": "ship", "class_id": 1, "confidence": 0.5097472071647644, "bbox": [ 14.313684463500977, 14.990795135498047, 64.52597045898438, 64.70417022705078 ], "lat": 37.767143894911612, "lon": -122.34926823517117, "true_label": 0 }, "geometry": { "type": "Point", "coordinates": [ -122.349268235171166, 37.767143894911612 ] } },
{ "type": "Feature", "properties": { "image_name": "01396.png", "class": "ship", "class_id": 1, "confidence": 0.62896794080734253, "bbox": [ 14.277963638305664, 14.828591346740723, 64.86359405517578, 65.20771789550781 ], "lat": 37.698276412786186, "lon": -122.39012831313774, "true_label": 0 }, "geometry": { "type": "Point", "coordinates": [ -122.390128313137737, 37.698276412786186 ] } },
{ "type": "Feature", "properties": { "image_name": "00777.png", "class": "ship", "class_id": 1, "confidence": 0.52240347862243652, "bbox": [ 13.000235557556152, 13.469677925109863, 65.50654602050781, 65.78582000732422 ], "lat": 33.72851166652616, "lon": -118.16416724979986, "true_label": 1 }, "geometry": { "type": "Point", "coordinates": [ -118.16416724979986, 33.72851166652616 ] } },
{ "type": "Feature", "properties": { "image_name": "01856.png", "class": "ship", "class_id": 1, "confidence": 0.524608314037323, "bbox": [ 15.236449241638184, 15.526437759399414, 63.847679138183594, 64.0416030883789 ], "lat": 37.677656663449412, "lon": -122.1590256007764, "true_label": 0 }, "geometry": { "type": "Point", "coordinates": [ -122.159025600776403, 37.677656663449412 ] } },
{ "type": "Feature", "properties": { "image_name": "00262.png", "class": "ship", "class_id": 1, "confidence": 0.68458712100982666, "bbox": [ 14.148367881774902, 14.226946830749512, 65.33322143554688, 65.51530456542969 ], "lat": 37.750096882733558, "lon": -122.34219814407086, "true_label": 1 }, "geometry": { "type": "Point", "coordinates": [ -122.342198144070863, 37.750096882733558 ] } }
]
}
